MYEG 251359Z AUTO 09009KT 10SM SCT029 27/20 A2998 RMK AO2 
KVTP 251358Z AUTO 23010G16KT 10SM CLR 00/M03 A3016 RMK AO2
KEHY 251428Z AUTO 26018G25KT 10SM CLR 06/M01 A3009 RMK AO2 T00551007
KFKA 251348Z AUTO 05009G15KT 7SM RA SCT010 BKN015 OVC044 10/08 A2977 RMK AO2 LTG DSNT E P0002 T01000075
KCPW 251347Z AUTO 36003KT 10SM CLR 00/M07 A3025 RMK AO2
KFDW 251355Z AUTO 22004KT 10SM CLR 29/15 A3000 RMK AO1